[
  {
    "OBJECT_NAME": "STARLINK-3668",
    "OBJECT_ID": "22025AY",
    "EPOCH": "2025-11-11T01:24:13.094496",
    "MEAN_MOTION": 15.08844656,
    "ECCENTRICITY": 0.0001499,
    "INCLINATION": 53.2153,
    "RA_OF_ASC_NODE": 191.7163,
    "ARG_OF_PERICENTER": 84.7675,
    "MEAN_ANOMALY": 275.3488,
    "EPHEMERIS_TYPE": 0,
    "CLASSIFICATION_TYPE": "U",
    "NORAD_CAT_ID": 52002,
    "ELEMENT_SET_NO": 999,
    "REV_AT_EPOCH": 20301,
    "BSTAR": 9.0079e-05,
    "MEAN_MOTION_DOT": 1.146e-05,
    "MEAN_MOTION_DDOT": 0.0,
    "TLE_LINE1": "1 52002U 22025AY  25315.05848489  .00001146  00000+0  90079-4 0  9992",
    "TLE_LINE2": "2 52002  53.2153 191.7163 0001499  84.7675 275.3488 15.08844656203018",
    "COMMENT": "Grouped by shell and plane from TLE"
  },
  {
    "OBJECT_NAME": "STARLINK-4197",
    "OBJECT_ID": "22062V",
    "EPOCH": "2025-11-11T01:42:05.330592",
    "MEAN_MOTION": 15.08850828,
    "ECCENTRICITY": 0.0001572,
    "INCLINATION": 53.214,
    "RA_OF_ASC_NODE": 196.6228,
    "ARG_OF_PERICENTER": 84.135,
    "MEAN_ANOMALY": 275.9821,
    "EPHEMERIS_TYPE": 0,
    "CLASSIFICATION_TYPE": "U",
    "NORAD_CAT_ID": 52849,
    "ELEMENT_SET_NO": 999,
    "REV_AT_EPOCH": 18801,
    "BSTAR": 0.00016766,
    "MEAN_MOTION_DOT": 2.382e-05,
    "MEAN_MOTION_DDOT": 0.0,
    "TLE_LINE1": "1 52849U 22062V   25315.07089503  .00002382  00000+0  16766-3 0  9991",
    "TLE_LINE2": "2 52849  53.2140 196.6228 0001572  84.1350 275.9821 15.08850828188012",
    "COMMENT": "Grouped by shell and plane from TLE"
  },
  {
    "OBJECT_NAME": "STARLINK-3809",
    "OBJECT_ID": "22062X",
    "EPOCH": "2025-11-11T01:36:48.117312",
    "MEAN_MOTION": 15.08838155,
    "ECCENTRICITY": 0.0001477,
    "INCLINATION": 53.2163,
    "RA_OF_ASC_NODE": 196.6382,
    "ARG_OF_PERICENTER": 87.755,
    "MEAN_ANOMALY": 272.3611,
    "EPHEMERIS_TYPE": 0,
    "CLASSIFICATION_TYPE": "U",
    "NORAD_CAT_ID": 52851,
    "ELEMENT_SET_NO": 999,
    "REV_AT_EPOCH": 18801,
    "BSTAR": 6.9165e-05,
    "MEAN_MOTION_DOT": 8.13e-06,
    "MEAN_MOTION_DDOT": 0.0,
    "TLE_LINE1": "1 52851U 22062X   25315.06722358  .00000813  00000+0  69165-4 0  9994",
    "TLE_LINE2": "2 52851  53.2163 196.6382 0001477  87.7550 272.3611 15.08838155188013",
    "COMMENT": "Grouped by shell and plane from TLE"
  },
  {
    "OBJECT_NAME": "STARLINK-4184",
    "OBJECT_ID": "22062Y",
    "EPOCH": "2025-11-11T01:47:23.724096",
    "MEAN_MOTION": 15.08851223,
    "ECCENTRICITY": 0.0001333,
    "INCLINATION": 53.2146,
    "RA_OF_ASC_NODE": 196.6051,
    "ARG_OF_PERICENTER": 112.3996,
    "MEAN_ANOMALY": 247.7137,
    "EPHEMERIS_TYPE": 0,
    "CLASSIFICATION_TYPE": "U",
    "NORAD_CAT_ID": 52852,
    "ELEMENT_SET_NO": 999,
    "REV_AT_EPOCH": 18801,
    "BSTAR": 0.00045937,
    "MEAN_MOTION_DOT": 7.033e-05,
    "MEAN_MOTION_DDOT": 0.0,
    "TLE_LINE1": "1 52852U 22062Y   25315.07458014  .00007033  00000+0  45937-3 0  9992",
    "TLE_LINE2": "2 52852  53.2146 196.6051 0001333 112.3996 247.7137 15.08851223188018",
    "COMMENT": "Grouped by shell and plane from TLE"
  },
  {
    "OBJECT_NAME": "STARLINK-4189",
    "OBJECT_ID": "22062Z",
    "EPOCH": "2025-11-11T01:22:18.331968",
    "MEAN_MOTION": 15.08813261,
    "ECCENTRICITY": 0.0001571,
    "INCLINATION": 53.2161,
    "RA_OF_ASC_NODE": 196.6514,
    "ARG_OF_PERICENTER": 81.6107,
    "MEAN_ANOMALY": 278.5063,
    "EPHEMERIS_TYPE": 0,
    "CLASSIFICATION_TYPE": "U",
    "NORAD_CAT_ID": 52853,
    "ELEMENT_SET_NO": 999,
    "REV_AT_EPOCH": 18801,
    "BSTAR": 0.00049702,
    "MEAN_MOTION_DOT": 7.625e-05,
    "MEAN_MOTION_DDOT": 0.0,
    "TLE_LINE1": "1 52853U 22062Z   25315.05715662  .00007625  00000+0  49702-3 0  9997",
    "TLE_LINE2": "2 52853  53.2161 196.6514 0001571  81.6107 278.5063 15.08813261188016",
    "COMMENT": "Grouped by shell and plane from TLE"
  },
  {
    "OBJECT_NAME": "STARLINK-4204",
    "OBJECT_ID": "22062AA",
    "EPOCH": "2025-11-11T01:31:29.525088",
    "MEAN_MOTION": 15.08846785,
    "ECCENTRICITY": 0.0001417,
    "INCLINATION": 53.2151,
    "RA_OF_ASC_NODE": 196.6571,
    "ARG_OF_PERICENTER": 84.1415,
    "MEAN_ANOMALY": 275.9739,
    "EPHEMERIS_TYPE": 0,
    "CLASSIFICATION_TYPE": "U",
    "NORAD_CAT_ID": 52854,
    "ELEMENT_SET_NO": 999,
    "REV_AT_EPOCH": 18801,
    "BSTAR": 0.00011432,
    "MEAN_MOTION_DOT": 1.532e-05,
    "MEAN_MOTION_DDOT": 0.0,
    "TLE_LINE1": "1 52854U 22062AA  25315.06353617  .00001532  00000+0  11432-3 0  9997",
    "TLE_LINE2": "2 52854  53.2151 196.6571 0001417  84.1415 275.9739 15.08846785188016",
    "COMMENT": "Grouped by shell and plane from TLE"
  },
  {
    "OBJECT_NAME": "STARLINK-4209",
    "OBJECT_ID": "22062AB",
    "EPOCH": "2025-11-11T01:15:37.211328",
    "MEAN_MOTION": 15.08810312,
    "ECCENTRICITY": 0.0001142,
    "INCLINATION": 53.2164,
    "RA_OF_ASC_NODE": 196.7042,
    "ARG_OF_PERICENTER": 68.5174,
    "MEAN_ANOMALY": 291.594,
    "EPHEMERIS_TYPE": 0,
    "CLASSIFICATION_TYPE": "U",
    "NORAD_CAT_ID": 52855,
    "ELEMENT_SET_NO": 999,
    "REV_AT_EPOCH": 18801,
    "BSTAR": 0.00056751,
    "MEAN_MOTION_DOT": 8.748e-05,
    "MEAN_MOTION_DDOT": 0.0,
    "TLE_LINE1": "1 52855U 22062AB  25315.05251402  .00008748  00000+0  56751-3 0  9995",
    "TLE_LINE2": "2 52855  53.2164 196.7042 0001142  68.5174 291.5940 15.08810312188013",
    "COMMENT": "Grouped by shell and plane from TLE"
  },
  {
    "OBJECT_NAME": "STARLINK-4201",
    "OBJECT_ID": "22062AC",
    "EPOCH": "2025-11-11T01:27:35.257536",
    "MEAN_MOTION": 15.08848032,
    "ECCENTRICITY": 0.0001508,
    "INCLINATION": 53.2157,
    "RA_OF_ASC_NODE": 196.7155,
    "ARG_OF_PERICENTER": 83.5048,
    "MEAN_ANOMALY": 276.6116,
    "EPHEMERIS_TYPE": 0,
    "CLASSIFICATION_TYPE": "U",
    "NORAD_CAT_ID": 52856,
    "ELEMENT_SET_NO": 999,
    "REV_AT_EPOCH": 18801,
    "BSTAR": 0.00027283,
    "MEAN_MOTION_DOT": 4.058e-05,
    "MEAN_MOTION_DDOT": 0.0,
    "TLE_LINE1": "1 52856U 22062AC  25315.06082474  .00004058  00000+0  27283-3 0  9996",
    "TLE_LINE2": "2 52856  53.2157 196.7155 0001508  83.5048 276.6116 15.08848032188013",
    "COMMENT": "Grouped by shell and plane from TLE"
  },
  {
    "OBJECT_NAME": "STARLINK-4199",
    "OBJECT_ID": "22062AD",
    "EPOCH": "2025-11-10T23:29:36.856320",
    "MEAN_MOTION": 15.08841431,
    "ECCENTRICITY": 0.0001544,
    "INCLINATION": 53.2165,
    "RA_OF_ASC_NODE": 197.0338,
    "ARG_OF_PERICENTER": 89.3046,
    "MEAN_ANOMALY": 270.8123,
    "EPHEMERIS_TYPE": 0,
    "CLASSIFICATION_TYPE": "U",
    "NORAD_CAT_ID": 52857,
    "ELEMENT_SET_NO": 999,
    "REV_AT_EPOCH": 18800,
    "BSTAR": 5.033100000000001e-06,
    "MEAN_MOTION_DOT": -2.08e-06,
    "MEAN_MOTION_DDOT": 0.0,
    "TLE_LINE1": "1 52857U 22062AD  25314.97889880 -.00000208  00000+0  50331-5 0  9998",
    "TLE_LINE2": "2 52857  53.2165 197.0338 0001544  89.3046 270.8123 15.08841431188001",
    "COMMENT": "Grouped by shell and plane from TLE"
  },
  {
    "OBJECT_NAME": "STARLINK-4198",
    "OBJECT_ID": "22062AE",
    "EPOCH": "2025-11-11T01:20:54.108384",
    "MEAN_MOTION": 15.08844577,
    "ECCENTRICITY": 0.0001257,
    "INCLINATION": 53.2157,
    "RA_OF_ASC_NODE": 196.7173,
    "ARG_OF_PERICENTER": 88.8199,
    "MEAN_ANOMALY": 271.2937,
    "EPHEMERIS_TYPE": 0,
    "CLASSIFICATION_TYPE": "U",
    "NORAD_CAT_ID": 52858,
    "ELEMENT_SET_NO": 999,
    "REV_AT_EPOCH": 18801,
    "BSTAR": 0.00011775,
    "MEAN_MOTION_DOT": 1.587e-05,
    "MEAN_MOTION_DDOT": 0.0,
    "TLE_LINE1": "1 52858U 22062AE  25315.05618181  .00001587  00000+0  11775-3 0  9990",
    "TLE_LINE2": "2 52858  53.2157 196.7173 0001257  88.8199 271.2937 15.08844577188013",
    "COMMENT": "Grouped by shell and plane from TLE"
  },
  {
    "OBJECT_NAME": "STARLINK-4196",
    "OBJECT_ID": "22062AF",
    "EPOCH": "2025-11-10T17:02:46.700736",
    "MEAN_MOTION": 15.08834509,
    "ECCENTRICITY": 0.0001424,
    "INCLINATION": 53.2171,
    "RA_OF_ASC_NODE": 198.2398,
    "ARG_OF_PERICENTER": 87.7278,
    "MEAN_ANOMALY": 272.3877,
    "EPHEMERIS_TYPE": 0,
    "CLASSIFICATION_TYPE": "U",
    "NORAD_CAT_ID": 52859,
    "ELEMENT_SET_NO": 999,
    "REV_AT_EPOCH": 18796,
    "BSTAR": 0.00011990000000000001,
    "MEAN_MOTION_DOT": 1.62e-05,
    "MEAN_MOTION_DDOT": 0.0,
    "TLE_LINE1": "1 52859U 22062AF  25314.71026274  .00001620  00000+0  11990-3 0  9996",
    "TLE_LINE2": "2 52859  53.2171 198.2398 0001424  87.7278 272.3877 15.08834509187960",
    "COMMENT": "Grouped by shell and plane from TLE"
  },
  {
    "OBJECT_NAME": "STARLINK-4191",
    "OBJECT_ID": "22062AG",
    "EPOCH": "2025-11-11T02:45:40.877280",
    "MEAN_MOTION": 15.08841493,
    "ECCENTRICITY": 0.0001285,
    "INCLINATION": 53.216,
    "RA_OF_ASC_NODE": 196.4252,
    "ARG_OF_PERICENTER": 87.2408,
    "MEAN_ANOMALY": 272.8731,
    "EPHEMERIS_TYPE": 0,
    "CLASSIFICATION_TYPE": "U",
    "NORAD_CAT_ID": 52860,
    "ELEMENT_SET_NO": 999,
    "REV_AT_EPOCH": 18802,
    "BSTAR": 0.00011218,
    "MEAN_MOTION_DOT": 1.498e-05,
    "MEAN_MOTION_DDOT": 0.0,
    "TLE_LINE1": "1 52860U 22062AG  25315.11505645  .00001498  00000+0  11218-3 0  9993",
    "TLE_LINE2": "2 52860  53.2160 196.4252 0001285  87.2408 272.8731 15.08841493188026",
    "COMMENT": "Grouped by shell and plane from TLE"
  },
  {
    "OBJECT_NAME": "STARLINK-4112",
    "OBJECT_ID": "22062AH",
    "EPOCH": "2025-11-11T02:09:57.764160",
    "MEAN_MOTION": 15.08844209,
    "ECCENTRICITY": 0.0001522,
    "INCLINATION": 53.2167,
    "RA_OF_ASC_NODE": 196.5439,
    "ARG_OF_PERICENTER": 88.2563,
    "MEAN_ANOMALY": 271.8604,
    "EPHEMERIS_TYPE": 0,
    "CLASSIFICATION_TYPE": "U",
    "NORAD_CAT_ID": 52861,
    "ELEMENT_SET_NO": 999,
    "REV_AT_EPOCH": 18802,
    "BSTAR": 4.9174e-05,
    "MEAN_MOTION_DOT": 4.95e-06,
    "MEAN_MOTION_DDOT": 0.0,
    "TLE_LINE1": "1 52861U 22062AH  25315.09025190  .00000495  00000+0  49174-4 0  9992",
    "TLE_LINE2": "2 52861  53.2167 196.5439 0001522  88.2563 271.8604 15.08844209188025",
    "COMMENT": "Grouped by shell and plane from TLE"
  }
]